0 NOAA 16 DEB
1 41517U 00055MR  23275.65518060  .00027202  00000-0  71666-2 0  9999
2 41517  98.8183  61.2402 0041680  15.1198 345.1229 14.48420054389284
0 NOAA 16 DEB
1 41516U 00055MQ  23274.67348207  .00005848  00000-0  26842-2 0  9991
2 41516  98.7217 350.4177 0017351 165.6489 194.5185 14.21541756385304
0 NOAA 16 DEB
1 41515U 00055MP  23275.70263982  .00027459  00000-0  87952-2 0  9992
2 41515  98.9755  81.7102 0012828 211.8286 148.2126 14.39407750386853
0 NOAA 16 DEB
1 41514U 00055MN  23274.78942211  .00014269  00000-0  53072-2 0  9998
2 41514  98.9031  43.9224 0039348 103.8517 256.7047 14.31731027387179
0 NOAA 16 DEB
1 41513U 00055MM  23275.83796884  .00004808  00000-0  29081-2 0  9998
2 41513  98.7365 285.3132 0061562 214.7501 144.9640 14.05985824385334
0 NOAA 16 DEB
1 41512U 00055ML  23274.85185708  .00010290  00000-0  38753-2 0  9993
2 41512  98.9490  57.1360 0041976 115.3810 245.1727 14.31135043391558
0 NOAA 16 DEB
1 41511U 00055MK  23275.40119827  .00004060  00000-0  21775-2 0  9997
2 41511  98.7527 332.6748 0028092  77.1795 283.2514 14.13333890387741
0 NOAA 16 DEB
1 41510U 00055MJ  23274.67646753  .00004976  00000-0  24688-2 0  9999
2 41510  98.7944 354.6183 0026138 355.9230   4.1728 14.17424875388566
0 NOAA 16 DEB
1 41509U 00055MH  23275.51051061  .00005381  00000-0  25963-2 0  9991
2 41509  98.7894 358.6312 0017888 322.9921  37.0020 14.18949549388885
0 NOAA 16 DEB
1 41508U 00055MG  23275.21375028  .00005829  00000-0  26950-2 0  9993
2 41508  98.8351  12.7074 0029366 273.8285  85.9534 14.21018677385485
0 NOAA 16 DEB
1 41507U 00055MF  23275.57295874  .00012173  00000-0  48997-2 0  9996
2 41507  98.9020  35.6637 0021049 167.9187 192.2502 14.28062770390451
0 NOAA 16 DEB
1 41506U 00055ME  23274.64606950  .00024699  00000-0  68773-2 0  9993
2 41506  98.8031  50.0101 0043422  16.8145 343.4474 14.45754748402121
0 NOAA 16 DEB
1 41505U 00055MD  23275.50050130  .00008244  00000-0  36276-2 0  9992
2 41505  98.8213  12.2027 0045135 125.6899 234.8493 14.23150207396196
0 NOAA 16 DEB
1 41502U 00055MA  23275.12456033  .00004017  00000-0  21074-2 0  9993
2 41502  98.7183 328.8623 0012015  99.7008 260.5524 14.14692576390982
0 NOAA 16 DEB
1 41501U 00055LZ  23275.22830645  .00018587  00000-0  56358-2 0  9998
2 41501  98.6880  19.0014 0045266  13.2364 347.0001 14.41654114395057
0 NOAA 16 DEB
1 41500U 00055LY  23274.89584516  .00010708  00000-0  40840-2 0  9998
2 41500  99.0354  77.9654 0042347 192.8640 167.1465 14.30480465392997
0 NOAA 16 DEB
1 41499U 00055LX  23275.41534856  .00007861  00000-0  34931-2 0  9996
2 41499  98.7235 344.1049 0037419 280.5943  79.1022 14.22830931391246
0 NOAA 16 DEB
1 41498U 00055LW  23274.75310384  .00001209  00000-0  60186-3 0  9991
2 41498  98.9313  27.7563 0019114 280.6776  79.2247 14.18855330391139
0 NOAA 16 DEB
1 41496U 00055LU  23274.20179271  .00006723  00000-0  30125-2 0  9992
2 41496  98.7489 359.3302 0020713 211.7101 148.2831 14.22707189391755
0 NOAA 16 DEB
1 41494U 00055LS  23274.82664478  .00012327  00000-0  46682-2 0  9998
2 41494  98.9317  50.4517 0035045 136.5576 223.8377 14.30950897391217
0 NOAA 16 DEB
1 41493U 00055LR  23275.29593400  .00009945  00000-0  39835-2 0  9999
2 41493  98.8706  32.5515 0035180 167.8234 192.3805 14.28154515390770
0 NOAA 16 DEB
1 41492U 00055LQ  23274.56513543  .00006875  00000-0  51429-2 0  9999
2 41492  98.8664 222.7487 0124400  73.8199 287.6610 13.91323589383786
0 YAOGAN 30
1 41473U 16029A   23274.83776066  .00001343  00000-0  20123-3 0  9990
2 41473  98.0482 321.4999 0018337 166.1479 194.0237 14.76180799397709
0 AIST 2D
1 41465U 16026B   23274.83555897  .00046490  00000-0  48196-3 0  9997
2 41465  96.9766 144.5924 0006003 169.7344 190.4040 15.64529092416605
0 MVL 300
1 41464U 16026A   23275.86536188  .00135697  00000-0  12205-2 0  9991
2 41464  96.9763 132.1005 0003633 209.3420 150.7638 15.67797331415906
0 ASAP-S
1 41461U 16025F   23274.58339734  .00040687  00000-0  11359-2 0  9996
2 41461  98.1953 129.1311 0109217 113.9624 247.3097 15.30739818408859
0 E-STAR-2
1 41459U 16025D   23274.71243729  .00052752  00000-0  12316-2 0  9996
2 41459  98.1711 127.3364 0093102  86.3761 274.8122 15.37528719409225
0 OUFTI-1
1 41458U 16025C   23274.54859632  .00068565  00000-0  13702-2 0  9991
2 41458  98.1662 130.3583 0083372  76.9241 284.1293 15.42804511409396
0 MICROSCOPE
1 41457U 16025B   23275.02715305  .00001769  00000-0  41501-3 0  9994
2 41457  98.2576 279.4678 0001768  64.8382 295.2999 14.55700796394607
0 SENTINEL 1B
1 41456U 16025A   23274.90864075  .00003882  00000-0  51995-3 0  9994
2 41456  98.1805 283.3995 0056754 146.6435 213.8373 14.78908481396126
0 ASTRO H DEB
1 41442U 16012L   23274.48269647  .00031019  00000-0  14537-2 0  9995
2 41442  31.0060 200.2831 0009390 231.8899 128.0895 15.18498103418998
0 NOAA 16 DEB
1 41433U 00055LN  23275.25739145  .00020237  00000-0  67887-2 0  9992
2 41433  99.0086  87.4244 0028780 132.1567 228.2069 14.37013024399047
0 NOAA 16 DEB
1 41431U 00055LL  23274.52741145  .00031734  00000-0  74207-2 0  9990
2 41431  98.9328 116.5358 0046784  33.4114 327.0017 14.53859012401630
0 NOAA 16 DEB
1 41430U 00055LK  23274.67507494  .00010199  00000-0  39506-2 0  9997
2 41430  98.9935  63.7642 0046516 185.2696 174.8001 14.29606117399643
0 NOAA 16 DEB
1 41429U 00055LJ  23275.92751452  .00005307  00000-0  26004-2 0  9993
2 41429  98.7615 352.1810 0017586 326.5439  33.4624 14.18144424392398
0 NOAA 16 DEB
1 41428U 00055LH  23274.71118590  .00006589  00000-0  30280-2 0  9992
2 41428  98.8157   8.0931 0020325 162.8975 197.2891 14.21403066392895
0 NOAA 16 DEB
1 41427U 00055LG  23275.18001563  .00010467  00000-0  53516-2 0  9991
2 41427  98.9350 358.0268 0039539 149.4364 210.9124 14.15310448390378
0 NOAA 16 DEB
1 41425U 00055LE  23274.45780584  .00012022  00000-0  41406-2 0  9999
2 41425  99.0097  87.3794 0051769 105.4508 255.2402 14.35314389398271
0 NOAA 16 DEB
1 41424U 00055LD  23274.57970881  .00007799  00000-0  34843-2 0  9994
2 41424  98.9093  26.9248 0030636 165.1055 195.1032 14.22679354393174
0 NOAA 16 DEB
1 41423U 00055LC  23275.50755574  .00005939  00000-0  27013-2 0  9992
2 41423  98.7183 352.4120 0015330 188.3055 171.7871 14.22027223396242
0 NOAA 16 DEB
1 41422U 00055LB  23274.47843421  .00005639  00000-0  28706-2 0  9992
2 41422  98.7712 345.0896 0018885 160.4448 199.7455 14.16070604393533
0 NOAA 16 DEB
1 41421U 00055LA  23274.37908095  .00016112  00000-0  57576-2 0  9994
2 41421  98.9573  64.2305 0049443 156.7374 203.6062 14.33462715395183
0 NOAA 16 DEB
1 41420U 00055KZ  23274.24049450  .00027349  00000-0  76116-2 0  9995
2 41420  98.9474  94.6385 0044447  55.2057 305.3303 14.45722532400114
0 NOAA 16 DEB
1 41419U 00055KY  23274.19440609  .00014125  00000-0  64688-2 0  9997
2 41419  98.8701 358.7358 0022021 139.2243 221.0587 14.21320721391993
0 NOAA 16 DEB
1 41418U 00055KX  23274.23270404  .00010970  00000-0  41866-2 0  9992
2 41418  99.0422  79.4444 0038033 157.5255 202.7603 14.30534106394637
0 NOAA 16 DEB
1 41416U 00055KV  23275.47886036  .00007491  00000-0  33319-2 0  9999
2 41416  98.7771   4.2855 0036483 122.0040 238.4691 14.22810599393306
0 NOAA 16 DEB
1 41415U 00055KU  23274.66663073  .00006162  00000-0  28977-2 0  9990
2 41415  98.7615 354.6921 0008191 191.1222 168.9774 14.20308857392644
0 NOAA 16 DEB
1 41414U 00055KT  23274.43638771  .00028089  00000-0  87432-2 0  9994
2 41414  98.9772  90.2520 0057809 142.7734 217.7482 14.39890708396540
0 NOAA 16 DEB
1 41413U 00055KS  23275.63225120  .00005853  00000-0  29136-2 0  9997
2 41413  98.7339 333.5848 0024921 139.3262 220.9780 14.17172895393460
0 NOAA 16 DEB
1 41412U 00055KR  23274.32251340  .00006005  00000-0  31570-2 0  9999
2 41412  98.6886 299.8872 0029288  83.8195 276.6314 14.14187960391639
0 NOAA 16 DEB
1 41410U 00055KP  23275.10352487  .00003850  00000-0  21416-2 0  9991
2 41410  98.7498 320.4645 0026792 155.4153 204.8302 14.11420131391843
0 NOAA 16 DEB
1 41409U 00055KN  23274.66991615  .00007402  00000-0  32381-2 0  9991
2 41409  98.6925 344.4351 0034674 240.9679 118.8023 14.23712207394158
0 NOAA 16 DEB
1 41408U 00055KM  23274.51223883  .00005702  00000-0  26656-2 0  9998
2 41408  98.7575 356.3776 0012936 243.9574 116.0271 14.20629058394014
0 NOAA 16 DEB
1 41406U 00055KK  23274.36055326  .00012298  00000-0  45659-2 0  9996
2 41406  98.9508  59.2108 0042988 116.0415 244.5203 14.31781235395866
0 NOAA 16 DEB
1 41405U 00055KJ  23274.70301072  .00010858  00000-0  49295-2 0  9995
2 41405  98.8678   5.5961 0013770  33.6652 326.5397 14.21928492393069
0 NOAA 16 DEB
1 41404U 00055KH  23274.89941556  .00010381  00000-0  40057-2 0  9999
2 41404  99.0412  77.9929 0038133 206.1915 153.7338 14.29990735395450
0 NOAA 16 DEB
1 41403U 00055KG  23274.79105356  .00010479  00000-0  42693-2 0  9993
2 41403  98.8853  33.1817 0028951 179.2259 180.8971 14.27377416396596
0 NOAA 16 DEB
1 41402U 00055KF  23274.56618387  .00003557  00000-0  20332-2 0  9995
2 41402  98.7510 310.9037 0035109 190.4651 169.5793 14.09871235392442
0 NOAA 16 DEB
1 41400U 00055KD  23274.17119042  .00006464  00000-0  29746-2 0  9992
2 41400  98.7504 355.5603 0019626 261.1445  98.7510 14.21347722391127
0 NOAA 16 DEB
1 41399U 00055KC  23274.56387708  .00004058  00000-0  23535-2 0  9995
2 41399  98.7901 315.7819 0047335 153.4402 206.9208 14.08753706394078
0 NOAA 16 DEB
1 41398U 00055KB  23274.20006058  .00007168  00000-0  32284-2 0  9997
2 41398  98.8053   8.7163 0019258 230.3741 129.5737 14.22439075392689
0 NOAA 16 DEB
1 41397U 00055KA  23274.77920127  .00010446  00000-0  40957-2 0  9999
2 41397  98.8971  40.1039 0043466 163.1247 197.1391 14.29051460393112
0 COSMOS 2515
1 41394U 16020A   23274.88013950  .00004113  00000-0  32227-3 0  9990
2 41394  97.9040 244.0485 0031800  41.2174 319.1442 15.01182905411620
0 RESURS P3
1 41386U 16016A   23275.47332176  .00073398  00000-0  41339-3 0  9991
2 41386  97.1672   6.8812 0008520 122.6469 237.5621 15.78944537423745
0 NOAA 16 DEB
1 41379U 00055JY  23274.76192864  .00008367  00000-0  34506-2 0  9999
2 41379  98.8058  18.2475 0032859 130.1404 230.2662 14.26753304400225
